[{"OBJECT_NAME":"SEEDS II (CO-66)","OBJECT_ID":"2008-021J","EPOCH":"2026-03-09T22:06:22.421376","MEAN_MOTION":15.29097236,"ECCENTRICITY":0.00014475,"INCLINATION":97.7519,"RA_OF_ASC_NODE":62.3611,"ARG_OF_PERICENTER":359.2618,"MEAN_ANOMALY":0.8619,"EPHEMERIS_TYPE":0,"CLASSIFICATION_TYPE":"U","NORAD_CAT_ID":32791,"ELEMENT_SET_NO":999,"REV_AT_EPOCH":97210,"BSTAR":0.00084213052,"MEAN_MOTION_DOT":0.00023758,"MEAN_MOTION_DDOT":0},{"OBJECT_NAME":"STARLINK-32577","OBJECT_ID":"2024-216N","EPOCH":"2026-03-09T22:49:36.788736","MEAN_MOTION":15.27579015,"ECCENTRICITY":0.00020997,"INCLINATION":43.0014,"RA_OF_ASC_NODE":261.9382,"ARG_OF_PERICENTER":264.7275,"MEAN_ANOMALY":95.3337,"EPHEMERIS_TYPE":0,"CLASSIFICATION_TYPE":"U","NORAD_CAT_ID":62044,"ELEMENT_SET_NO":999,"REV_AT_EPOCH":7384,"BSTAR":0.00083935522,"MEAN_MOTION_DOT":0.00022907,"MEAN_MOTION_DDOT":0}]
